{"type": "FeatureCollection", "features": [ {"type": "Feature", "properties": {"norad_id": 66958, "name": "CZ-6A R/B", "group": "last-30-days", "lat": -75.72995981458091, "lon": -28.842463638943297, "alt_km": 995.8598132345433, "timestamp": "2025-12-15T11:38:35.908432+00:00", "meta": {"OBJECT_NAME": "CZ-6A R/B", "OBJECT_ID": "2025-287F", "EPOCH": "2025-12-14T22:14:24.405504", "MEAN_MOTION": 13.94919967, "ECCENTRICITY": 0.01072747, "INCLINATION": 86.5059, "RA_OF_ASC_NODE": 345.2692, "ARG_OF_PERICENTER": 95.5923, "MEAN_ANOMALY": 265.7497, "EPHEMERIS_TYPE": 0, "CLASSIFICATION_TYPE": "U", "NORAD_CAT_ID": 66958, "ELEMENT_SET_NO": 999, "REV_AT_EPOCH": 84, "BSTAR": 0.00012904175, "MEAN_MOTION_DOT": 2.01e-06, "MEAN_MOTION_DDOT": 0}, "tle": {"line1": "1 66958U 25287F   25348.92667136  .00000201  00000+0  12904-3 0  9991", "line2": "2 66958  86.5059 345.2692 0107274  95.5923 265.7497 13.94919967   844"}}, "geometry": {"type": "Point", "coordinates": [-28.842463638943297, -75.72995981458091]}}, {"type": "Feature", "properties": {"norad_id": 66988, "name": "YAOGAN-47", "group": "last-30-days", "lat": -78.51649205270529, "lon": 95.21769052691107, "alt_km": 504.1199862862604, "timestamp": "2025-12-15T11:38:35.908442+00:00", "meta": {"OBJECT_NAME": "YAOGAN-47", "OBJECT_ID": "2025-289A", "EPOCH": "2025-12-11T14:58:29.248032", "MEAN_MOTION": 15.23120362, "ECCENTRICITY": 8.584e-05, "INCLINATION": 97.5268, "RA_OF_ASC_NODE": 50.7421, "ARG_OF_PERICENTER": 73.685, "MEAN_ANOMALY": 286.448, "EPHEMERIS_TYPE": 0, "CLASSIFICATION_TYPE": "U", "NORAD_CAT_ID": 66988, "ELEMENT_SET_NO": 999, "REV_AT_EPOCH": 37, "BSTAR": 0.00024920475, "MEAN_MOTION_DOT": 5.809e-05, "MEAN_MOTION_DDOT": 0}, "tle": {"line1": "1 66988U 25289A   25345.62394963  .00005809  00000+0  24920-3 0  9995", "line2": "2 66988  97.5268  50.7421 0000858  73.6850 286.4480 15.23120362   372"}}, "geometry": {"type": "Point", "coordinates": [95.21769052691107, -78.51649205270529]}}, {"type": "Feature", "properties": {"norad_id": 66989, "name": "CZ-4B R/B", "group": "last-30-days", "lat": 12.735634851349582, "lon": -123.26040817621502, "alt_km": 464.7581697508531, "timestamp": "2025-12-15T11:38:35.908453+00:00", "meta": {"OBJECT_NAME": "CZ-4B R/B", "OBJECT_ID": "2025-289B", "EPOCH": "2025-12-14T08:53:33.480960", "MEAN_MOTION": 15.67658249, "ECCENTRICITY": 0.01478362, "INCLINATION": 97.5272, "RA_OF_ASC_NODE": 53.8313, "ARG_OF_PERICENTER": 356.7578, "MEAN_ANOMALY": 3.2708, "EPHEMERIS_TYPE": 0, "CLASSIFICATION_TYPE": "U", "NORAD_CAT_ID": 66989, "ELEMENT_SET_NO": 999, "REV_AT_EPOCH": 82, "BSTAR": 0.00069067136, "MEAN_MOTION_DOT": 0.0013956, "MEAN_MOTION_DDOT": 7.73398e-06}, "tle": {"line1": "1 66989U 25289B   25348.37052640  .00139560  77340-5  69067-3 0  9994", "line2": "2 66989  97.5272  53.8313 0147836 356.7578   3.2708 15.67658249   828"}}, "geometry": {"type": "Point", "coordinates": [-123.26040817621502, 12.735634851349582]}}, {"type": "Feature", "properties": {"norad_id": 66990, "name": "TJS-22", "group": "last-30-days", "lat": 6.693798120838304, "lon": -41.45680850673123, "alt_km": 32463.053556422386, "timestamp": "2025-12-15T11:38:35.908465+00:00", "meta": {"OBJECT_NAME": "TJS-22", "OBJECT_ID": "2025-290A", "EPOCH": "2025-12-10T07:11:32.845344", "MEAN_MOTION": 2.15443148, "ECCENTRICITY": 0.6664534, "INCLINATION": 20.1261, "RA_OF_ASC_NODE": 301.1464, "ARG_OF_PERICENTER": 180.6877, "MEAN_ANOMALY": 177.6237, "EPHEMERIS_TYPE": 0, "CLASSIFICATION_TYPE": "U", "NORAD_CAT_ID": 66990, "ELEMENT_SET_NO": 999, "REV_AT_EPOCH": 3, "BSTAR": 0.079788243, "MEAN_MOTION_DOT": -3.8e-07, "MEAN_MOTION_DDOT": 0}, "tle": {"line1": "1 66990U 25290A   25344.29968571 -.00000038  00000+0  79788-1 0  9994", "line2": "2 66990  20.1261 301.1464 6664534 180.6877 177.6237  2.15443148    32"}}, "geometry": {"type": "Point", "coordinates": [-41.45680850673123, 6.693798120838304]}}, {"type": "Feature", "properties": {"norad_id": 66991, "name": "CZ-3B R/B", "group": "last-30-days", "lat": 21.681700552892785, "lon": -12.299906465977612, "alt_km": 15427.376682158589, "timestamp": "2025-12-15T11:38:35.908476+00:00", "meta": {"OBJECT_NAME": "CZ-3B R/B", "OBJECT_ID": "2025-290B", "EPOCH": "2025-12-10T06:44:55.577184", "MEAN_MOTION": 2.37676924, "ECCENTRICITY": 0.72420555, "INCLINATION": 28.4645, "RA_OF_ASC_NODE": 302.5976, "ARG_OF_PERICENTER": 179.3847, "MEAN_ANOMALY": 182.8677, "EPHEMERIS_TYPE": 0, "CLASSIFICATION_TYPE": "U", "NORAD_CAT_ID": 66991, "ELEMENT_SET_NO": 999, "REV_AT_EPOCH": 3, "BSTAR": 0.00043781284, "MEAN_MOTION_DOT": 0.00018897, "MEAN_MOTION_DDOT": 4.56211e-07}, "tle": {"line1": "1 66991U 25290B   25344.28119881  .00018897  45621-6  43781-3 0  9998", "line2": "2 66991  28.4645 302.5976 7242055 179.3847 182.8677  2.37676924    36"}}, "geometry": {"type": "Point", "coordinates": [-12.299906465977612, 21.681700552892785]}}, {"type": "Feature", "properties": {"norad_id": 66993, "name": "2025-292A", "group": "last-30-days", "lat": 79.86087703255967, "lon": -69.23025578677664, "alt_km": 554.917961521156, "timestamp": "2025-12-15T11:38:35.908487+00:00", "meta": {"OBJECT_NAME": "2025-292A", "OBJECT_ID": "2025-292A", "EPOCH": "2025-12-14T22:26:41.380224", "MEAN_MOTION": 15.04509585, "ECCENTRICITY": 0.00138081, "INCLINATION": 97.6536, "RA_OF_ASC_NODE": 61.4652, "ARG_OF_PERICENTER": 264.7088, "MEAN_ANOMALY": 95.2562, "EPHEMERIS_TYPE": 0, "CLASSIFICATION_TYPE": "U", "NORAD_CAT_ID": 66993, "ELEMENT_SET_NO": 999, "REV_AT_EPOCH": 72, "BSTAR": 0.00025850961, "MEAN_MOTION_DOT": 3.565e-05, "MEAN_MOTION_DDOT": 0}, "tle": {"line1": "1 66993U 25292A   25348.93520116  .00003565  00000+0  25851-3 0  9994", "line2": "2 66993  97.6536  61.4652 0013808 264.7088  95.2562 15.04509585   720"}}, "geometry": {"type": "Point", "coordinates": [-69.23025578677664, 79.86087703255967]}}, {"type": "Feature", "properties": {"norad_id": 66994, "name": "2025-292B", "group": "last-30-days", "lat": 79.26086342624303, "lon": -72.8270794515389, "alt_km": 554.6300176731138, "timestamp": "2025-12-15T11:38:35.908499+00:00", "meta": {"OBJECT_NAME": "2025-292B", "OBJECT_ID": "2025-292B", "EPOCH": "2025-12-14T22:26:28.935168", "MEAN_MOTION": 15.04560942, "ECCENTRICITY": 0.00135934, "INCLINATION": 97.6545, "RA_OF_ASC_NODE": 61.4656, "ARG_OF_PERICENTER": 265.3396, "MEAN_ANOMALY": 94.6278, "EPHEMERIS_TYPE": 0, "CLASSIFICATION_TYPE": "U", "NORAD_CAT_ID": 66994, "ELEMENT_SET_NO": 999, "REV_AT_EPOCH": 72, "BSTAR": 0.00028462282, "MEAN_MOTION_DOT": 3.937e-05, "MEAN_MOTION_DDOT": 0}, "tle": {"line1": "1 66994U 25292B   25348.93505712  .00003937  00000+0  28462-3 0  9994", "line2": "2 66994  97.6545  61.4656 0013593 265.3396  94.6278 15.04560942   726"}}, "geometry": {"type": "Point", "coordinates": [-72.8270794515389, 79.26086342624303]}}, {"type": "Feature", "properties": {"norad_id": 66995, "name": "2025-292C", "group": "last-30-days", "lat": 79.20186439977114, "lon": -73.15564853710805, "alt_km": 554.7882774688005, "timestamp": "2025-12-15T11:38:35.908519+00:00", "meta": {"OBJECT_NAME": "2025-292C", "OBJECT_ID": "2025-292C", "EPOCH": "2025-12-14T22:26:27.741120", "MEAN_MOTION": 15.04567806, "ECCENTRICITY": 0.00138574, "INCLINATION": 97.6536, "RA_OF_ASC_NODE": 61.4653, "ARG_OF_PERICENTER": 265.4352, "MEAN_ANOMALY": 94.5291, "EPHEMERIS_TYPE": 0, "CLASSIFICATION_TYPE": "U", "NORAD_CAT_ID": 66995, "ELEMENT_SET_NO": 999, "REV_AT_EPOCH": 72, "BSTAR": 0.00031075292, "MEAN_MOTION_DOT": 4.306e-05, "MEAN_MOTION_DDOT": 0}, "tle": {"line1": "1 66995U 25292C   25348.93504330  .00004306  00000+0  31075-3 0  9995", "line2": "2 66995  97.6536  61.4653 0013857 265.4352  94.5291 15.04567806   720"}}, "geometry": {"type": "Point", "coordinates": [-73.15564853710805, 79.20186439977114]}}, {"type": "Feature", "properties": {"norad_id": 66996, "name": "2025-292D", "group": "last-30-days", "lat": 78.46601693321212, "lon": -76.77337987614314, "alt_km": 554.1944646008988, "timestamp": "2025-12-15T11:38:35.908531+00:00", "meta": {"OBJECT_NAME": "2025-292D", "OBJECT_ID": "2025-292D", "EPOCH": "2025-12-14T22:26:13.183584", "MEAN_MOTION": 15.04611873, "ECCENTRICITY": 0.00130261, "INCLINATION": 97.653, "RA_OF_ASC_NODE": 61.4653, "ARG_OF_PERICENTER": 268.1854, "MEAN_ANOMALY": 91.788, "EPHEMERIS_TYPE": 0, "CLASSIFICATION_TYPE": "U", "NORAD_CAT_ID": 66996, "ELEMENT_SET_NO": 999, "REV_AT_EPOCH": 72, "BSTAR": 0.00022962937, "MEAN_MOTION_DOT": 3.168e-05, "MEAN_MOTION_DDOT": 0}, "tle": {"line1": "1 66996U 25292D   25348.93487481  .00003168  00000+0  22963-3 0  9994", "line2": "2 66996  97.6530  61.4653 0013026 268.1854  91.7880 15.04611873   727"}}, "geometry": {"type": "Point", "coordinates": [-76.77337987614314, 78.46601693321212]}}, {"type": "Feature", "properties": {"norad_id": 66997, "name": "2025-292E", "group": "last-30-days", "lat": 77.30824520378091, "lon": -81.3166247684307, "alt_km": 554.2396209428143, "timestamp": "2025-12-15T11:38:35.908541+00:00", "meta": {"OBJECT_NAME": "2025-292E", "OBJECT_ID": "2025-292E", "EPOCH": "2025-12-14T22:25:51.746016", "MEAN_MOTION": 15.04692563, "ECCENTRICITY": 0.0013407, "INCLINATION": 97.6551, "RA_OF_ASC_NODE": 61.4666, "ARG_OF_PERICENTER": 269.0732, "MEAN_ANOMALY": 90.8958, "EPHEMERIS_TYPE": 0, "CLASSIFICATION_TYPE": "U", "NORAD_CAT_ID": 66997, "ELEMENT_SET_NO": 999, "REV_AT_EPOCH": 71, "BSTAR": 0.00025172825, "MEAN_MOTION_DOT": 3.487e-05, "MEAN_MOTION_DDOT": 0}, "tle": {"line1": "1 66997U 25292E   25348.93462669  .00003487  00000+0  25173-3 0  9996", "line2": "2 66997  97.6551  61.4666 0013407 269.0732  90.8958 15.04692563   713"}}, "geometry": {"type": "Point", "coordinates": [-81.3166247684307, 77.30824520378091]}}]}